QIANFAN-9               
1 60387U 24140J   25280.98922124  .00000064  00000+0  80830-4 0  9991
2 60387  88.9757 306.1532 0017271  34.4388 325.7878 13.50973136 58458
QIANFAN-10              
1 60388U 24140K   25280.99335911  .00000054  00000+0  64574-4 0  9991
2 60388  88.9765 305.4937 0014959  13.5059 346.6489 13.50970064 58583
QIANFAN-11              
1 60389U 24140L   25280.95628525  .00000068  00000+0  86377-4 0  9994
2 60389  88.9693 306.1337 0015317  35.0579 325.1577 13.50970737 58230
QIANFAN-12              
1 60390U 24140M   25280.90274444  .00000054  00000+0  65629-4 0  9990
2 60390  88.9737 306.1539 0014406  43.3056 316.9224 13.50970905 58352
QIANFAN-13              
1 60391U 24140N   25280.94802590  .00000071  00000+0  91584-4 0  9992
2 60391  88.9746 306.2410 0014296  45.7069 314.5252 13.50971087 58389
QIANFAN-14              
1 60392U 24140P   25280.89856485  .00000049  00000+0  56642-4 0  9990
2 60392  88.9726 306.1578 0017965  44.2970 315.9615 13.50971662 58380
QIANFAN-15              
1 60393U 24140Q   25280.98086723  .00000053  00000+0  63694-4 0  9991
2 60393  88.9751 306.0902 0013360  33.3183 326.8806 13.50975311 58387
QIANFAN-16              
1 60394U 24140R   25280.96866274  .00000054  00000+0  64155-4 0  9991
2 60394  88.9754 306.2096 0016012  48.3891 311.8630 13.50970731 58296
